COSMOS 2433 (720)       
1 32275U 07052A   25282.80110920 -.00000034  00000+0  00000+0 0  9999
2 32275  65.7155 324.3545 0005816 236.4648 123.5488  2.13104030139726
COSMOS 2432 (719)       
1 32276U 07052B   25281.54038821 -.00000027  00000+0  00000+0 0  9991
2 32276  65.7317 324.5199 0009856 306.6126 110.8938  2.13103042139724
COSMOS 2434 (721)       
1 32393U 07065A   25280.29240098  .00000027  00000+0  00000+0 0  9996
2 32393  64.3158 200.4447 0002181  57.8607  68.4626  2.13101168138383
COSMOS 2436 (723)       
1 32395U 07065C   25279.17308701  .00000019  00000+0  00000+0 0  9990
2 32395  64.3246 200.5519 0017186   0.9922 120.0109  2.13099924138314
COSMOS 2456 (730)       
1 36111U 09070A   25282.97047839  .00000027  00000+0  00000+0 0  9991
2 36111  64.8644  79.5172 0001402 335.9680 201.5709  2.13103538123093
COSMOS 2457 (733)       
1 36112U 09070B   25279.70985178  .00000045  00000+0  00000+0 0  9996
2 36112  64.8475  79.4775 0006039 139.2500 186.6045  2.13100982123020
COSMOS 2460 (732)       
1 36402U 10007C   25283.51529572 -.00000036  00000+0  00000+0 0  9997
2 36402  65.5626 322.9097 0002804 238.1896 125.5505  2.13106110121417
COSMOS 2476 (744)       
1 37867U 11064A   25282.87178049  .00000030  00000+0  00000+0 0  9997
2 37867  65.1275  81.3312 0022410 230.5151 140.1773  2.13101357108435
COSMOS 2477 (745)       
1 37868U 11064B   25280.51745134  .00000043  00000+0  00000+0 0  9996
2 37868  65.1329  81.4877 0019460 230.6384 314.4958  2.13102850108376
COSMOS 2475 (743)       
1 37869U 11064C   25281.97195182  .00000033  00000+0  00000+0 0  9999
2 37869  65.1403  81.4580 0024197 246.7311 290.5015  2.13101576108419
COSMOS 2485 (747)       
1 39155U 13019A   25283.26447980  .00000031  00000+0  00000+0 0  9999
2 39155  65.2806  82.0007 0022967 226.4205 133.3945  2.13104341 96952
COSMOS 2492 (754)       
1 39620U 14012A   25280.87661119 -.00000021  00000+0  00000+0 0  9996
2 39620  65.4424 322.5060 0012845 306.9243  53.0338  2.13103125 89863
COSMOS 2500 (755)       
1 40001U 14032A   25281.51893326 -.00000025  00000+0  00000+0 0  9996
2 40001  65.3780 322.2515 0009367 211.1443 148.8728  2.13105829 88091
COSMOS 2501 (702K)      
1 40315U 14075A   25278.96209949  .00000018  00000+0  00000+0 0  9999
2 40315  63.6151 199.1714 0020906 208.6171 151.2888  2.13101279 84439
COSMOS 2514 (751)       
1 41330U 16008A   25282.70019874 -.00000031  00000+0  00000+0 0  9994
2 41330  65.1683 321.5987 0013485 214.7194 145.2595  2.13102470 75289
COSMOS 2522 (752)       
1 42939U 17055A   25281.13084801  .00000032  00000+0  00000+0 0  9991
2 42939  64.0770 200.4623 0008394 235.8136 124.1362  2.13101861 62608
COSMOS 2527 (756)       
1 43508U 18053A   25281.09145296  .00000040  00000+0  00000+0 0  9993
2 43508  65.4374  82.3249 0007503 213.8113 146.1537  2.13102117 56908
COSMOS 2529 (757)       
1 43687U 18086A   25277.90448146  .00000009  00000+0  00000+0 0  9997
2 43687  64.2856 201.2136 0000974  93.7560 266.2683  2.13101663 53842
COSMOS 2534 (758)       
1 44299U 19030A   25280.20502529  .00000026  00000+0  00000+0 0  9999
2 44299  64.3664 201.1333 0011282 279.9657 179.4735  2.13101899 49532
COSMOS 2544 (759)       
1 44850U 19088A   25282.91297788  .00000032  00000+0  00000+0 0  9990
2 44850  65.4260  82.0920 0011975 245.7086 114.1725  2.13101877 45383
COSMOS 2545 (760)       
1 45358U 20018A   25282.17055133 -.00000029  00000+0  00000+0 0  9990
2 45358  64.5048 321.2357 0012259 241.0974 118.8480  2.13102407 43314
COSMOS 2547 (705K)      
1 46805U 20075A   25280.01151130  .00000025  00000+0  00000+0 0  9991
2 46805  64.5970 200.9234 0007647 236.6415 123.3077  2.13099754 38517
COSMOS 2557 (706K)      
1 52984U 22075A   25281.11597852 -.00000026  00000+0  00000+0 0  9997
2 52984  64.4443 323.3602 0013384 272.0093  87.9116  2.13101992 25340
COSMOS 2559 (707K)      
1 54031U 22130A   25282.81203230 -.00000036  00000+0  00000+0 0  9997
2 54031  64.4160 323.3921 0013036 190.5009 169.5389  2.13101457 23354
COSMOS 2564 (761)       
1 54377U 22161A   25280.77931969  .00000030  00000+0  00000+0 0  9997
2 54377  64.7388 201.0881 0010099 217.4540 142.5018  2.13101964 22255
COSMOS 2569 (703K)      
1 57517U 23114A   25283.13950902  .00000029  00000+0  00000+0 0  9994
2 57517  65.1597  81.0618 0008646 290.1532  69.7585  2.13103755 16936
COSMOS 2584 (704K)      
1 63130U 25042A   25279.74113634  .00000049  00000+0  00000+0 0  9991
2 63130  64.9391  81.4273 0006836 203.1802 156.8085  2.13103311  4643
